GLOBALSTAR M084         
1 38040U 11080A   24273.63023417 -.00000078  00000+0  14632-3 0  9993
2 38040  51.9988 121.7049 0000728 103.2465 295.0730 12.62267976589768
GLOBALSTAR M080         
1 38041U 11080B   24273.60324131 -.00000069  00000+0  19241-3 0  9999
2 38041  52.0043 123.3032 0000992 107.7683 287.6267 12.62266221589884
GLOBALSTAR M090         
1 38044U 11080E   24273.48460110 -.00000092  00000+0  65969-4 0  9991
2 38044  51.9881  73.2240 0000801  75.1945 321.0773 12.62268109590690
GLOBALSTAR M097         
1 39072U 13005A   24273.52969944 -.00000087  00000+0  90832-4 0  9997
2 39072  52.0072 347.9047 0000733  85.7971 274.2980 12.62270601537894
GLOBALSTAR M093         
1 39073U 13005B   24273.58203303 -.00000075  00000+0  16277-3 0  9991
2 39073  51.9833 341.4628 0000715  80.3980 279.6967 12.62264620537857
